{"type": "FeatureCollection", "features": [ {"type": "Feature", "properties": {"norad_id": 67050, "name": "STARLINK-36078", "group": "last-30-days", "lat": -24.325841249947075, "lon": 85.4104846410754, "alt_km": 340.2250296754155, "timestamp": "2025-12-23T18:59:30.760449+00:00", "meta": {"OBJECT_NAME": "STARLINK-36078", "OBJECT_ID": "2025-294W", "EPOCH": "2025-12-23T06:00:00.999648", "MEAN_MOTION": 15.79333787, "ECCENTRICITY": 0.00013238, "INCLINATION": 43.0003, "RA_OF_ASC_NODE": 117.7312, "ARG_OF_PERICENTER": 275.9054, "MEAN_ANOMALY": 207.7285, "EPHEMERIS_TYPE": 0, "CLASSIFICATION_TYPE": "U", "NORAD_CAT_ID": 67050, "ELEMENT_SET_NO": 999, "REV_AT_EPOCH": 191, "BSTAR": -0.011811925, "MEAN_MOTION_DOT": -0.01913633, "MEAN_MOTION_DDOT": 0}, "tle": {"line1": "1 67050U 25294W   25357.25001157 -.01913633  00000+0 -11812-1 0  9994", "line2": "2 67050  43.0003 117.7312 0001323 275.9054 207.7285 15.79333787  1918"}}, "geometry": {"type": "Point", "coordinates": [85.4104846410754, -24.325841249947075]}}, {"type": "Feature", "properties": {"norad_id": 67051, "name": "STARLINK-35706", "group": "last-30-days", "lat": -22.92505254687543, "lon": 87.43324056991503, "alt_km": 340.1213026385685, "timestamp": "2025-12-23T18:59:30.760458+00:00", "meta": {"OBJECT_NAME": "STARLINK-35706", "OBJECT_ID": "2025-294X", "EPOCH": "2025-12-23T06:00:00.999648", "MEAN_MOTION": 15.79315994, "ECCENTRICITY": 0.00014561, "INCLINATION": 43.0003, "RA_OF_ASC_NODE": 117.7252, "ARG_OF_PERICENTER": 276.3236, "MEAN_ANOMALY": 209.673, "EPHEMERIS_TYPE": 0, "CLASSIFICATION_TYPE": "U", "NORAD_CAT_ID": 67051, "ELEMENT_SET_NO": 999, "REV_AT_EPOCH": 199, "BSTAR": -0.011821932, "MEAN_MOTION_DOT": -0.01913804, "MEAN_MOTION_DDOT": 0}, "tle": {"line1": "1 67051U 25294X   25357.25001157 -.01913804  00000+0 -11822-1 0  9996", "line2": "2 67051  43.0003 117.7252 0001456 276.3236 209.6730 15.79315994  1990"}}, "geometry": {"type": "Point", "coordinates": [87.43324056991503, -22.92505254687543]}}, {"type": "Feature", "properties": {"norad_id": 67052, "name": "STARLINK-35720", "group": "last-30-days", "lat": -21.70752912936991, "lon": 89.12897780054054, "alt_km": 340.06334215183233, "timestamp": "2025-12-23T18:59:30.760466+00:00", "meta": {"OBJECT_NAME": "STARLINK-35720", "OBJECT_ID": "2025-294Y", "EPOCH": "2025-12-23T06:00:00.999648", "MEAN_MOTION": 15.793144, "ECCENTRICITY": 0.00015254, "INCLINATION": 43.0002, "RA_OF_ASC_NODE": 117.7202, "ARG_OF_PERICENTER": 274.5875, "MEAN_ANOMALY": 213.4012, "EPHEMERIS_TYPE": 0, "CLASSIFICATION_TYPE": "U", "NORAD_CAT_ID": 67052, "ELEMENT_SET_NO": 999, "REV_AT_EPOCH": 198, "BSTAR": -0.011821261, "MEAN_MOTION_DOT": -0.01913655, "MEAN_MOTION_DDOT": 0}, "tle": {"line1": "1 67052U 25294Y   25357.25001157 -.01913655  00000+0 -11821-1 0  9990", "line2": "2 67052  43.0002 117.7202 0001525 274.5875 213.4012 15.79314400  1987"}}, "geometry": {"type": "Point", "coordinates": [89.12897780054054, -21.70752912936991]}}, {"type": "Feature", "properties": {"norad_id": 67053, "name": "STARLINK-35739", "group": "last-30-days", "lat": -20.345373413880907, "lon": 90.96573260270105, "alt_km": 340.05832884654956, "timestamp": "2025-12-23T18:59:30.760475+00:00", "meta": {"OBJECT_NAME": "STARLINK-35739", "OBJECT_ID": "2025-294Z", "EPOCH": "2025-12-23T06:00:00.999648", "MEAN_MOTION": 15.79300975, "ECCENTRICITY": 0.00015101, "INCLINATION": 43.0004, "RA_OF_ASC_NODE": 117.7146, "ARG_OF_PERICENTER": 273.5382, "MEAN_ANOMALY": 216.671, "EPHEMERIS_TYPE": 0, "CLASSIFICATION_TYPE": "U", "NORAD_CAT_ID": 67053, "ELEMENT_SET_NO": 999, "REV_AT_EPOCH": 164, "BSTAR": -0.011825889, "MEAN_MOTION_DOT": -0.01913262, "MEAN_MOTION_DDOT": 0}, "tle": {"line1": "1 67053U 25294Z   25357.25001157 -.01913262  00000+0 -11826-1 0  9990", "line2": "2 67053  43.0004 117.7146 0001510 273.5382 216.6710 15.79300975  1648"}}, "geometry": {"type": "Point", "coordinates": [90.96573260270105, -20.345373413880907]}}, {"type": "Feature", "properties": {"norad_id": 67054, "name": "STARLINK-35754", "group": "last-30-days", "lat": -18.857829481188112, "lon": 92.90655344108299, "alt_km": 340.08878571574405, "timestamp": "2025-12-23T18:59:30.760484+00:00", "meta": {"OBJECT_NAME": "STARLINK-35754", "OBJECT_ID": "2025-294AA", "EPOCH": "2025-12-23T06:00:00.999648", "MEAN_MOTION": 15.79286778, "ECCENTRICITY": 0.00012454, "INCLINATION": 43.0002, "RA_OF_ASC_NODE": 117.7086, "ARG_OF_PERICENTER": 276.9866, "MEAN_ANOMALY": 215.6263, "EPHEMERIS_TYPE": 0, "CLASSIFICATION_TYPE": "U", "NORAD_CAT_ID": 67054, "ELEMENT_SET_NO": 999, "REV_AT_EPOCH": 180, "BSTAR": -0.011890242, "MEAN_MOTION_DOT": -0.01920933, "MEAN_MOTION_DDOT": 0}, "tle": {"line1": "1 67054U 25294AA  25357.25001157 -.01920933  00000+0 -11890-1 0  9995", "line2": "2 67054  43.0002 117.7086 0001245 276.9866 215.6263 15.79286778  1803"}}, "geometry": {"type": "Point", "coordinates": [92.90655344108299, -18.857829481188112]}}, {"type": "Feature", "properties": {"norad_id": 67055, "name": "STARLINK-35790", "group": "last-30-days", "lat": -17.396139086670548, "lon": 94.75541587010404, "alt_km": 340.10954200862034, "timestamp": "2025-12-23T18:59:30.760494+00:00", "meta": {"OBJECT_NAME": "STARLINK-35790", "OBJECT_ID": "2025-294AB", "EPOCH": "2025-12-23T06:00:00.999648", "MEAN_MOTION": 15.79269159, "ECCENTRICITY": 0.00012325, "INCLINATION": 43.0001, "RA_OF_ASC_NODE": 117.7022, "ARG_OF_PERICENTER": 274.0895, "MEAN_ANOMALY": 220.8474, "EPHEMERIS_TYPE": 0, "CLASSIFICATION_TYPE": "U", "NORAD_CAT_ID": 67055, "ELEMENT_SET_NO": 999, "REV_AT_EPOCH": 199, "BSTAR": -0.011893974, "MEAN_MOTION_DOT": -0.01920092, "MEAN_MOTION_DDOT": 0}, "tle": {"line1": "1 67055U 25294AB  25357.25001157 -.01920092  00000+0 -11894-1 0  9996", "line2": "2 67055  43.0001 117.7022 0001232 274.0895 220.8474 15.79269159  1996"}}, "geometry": {"type": "Point", "coordinates": [94.75541587010404, -17.396139086670548]}}, {"type": "Feature", "properties": {"norad_id": 67056, "name": "STARLINK-36143", "group": "last-30-days", "lat": -13.406267981949034, "lon": 99.56669198602037, "alt_km": 339.90220056457383, "timestamp": "2025-12-23T18:59:30.760503+00:00", "meta": {"OBJECT_NAME": "STARLINK-36143", "OBJECT_ID": "2025-294AC", "EPOCH": "2025-12-23T06:00:00.999648", "MEAN_MOTION": 15.79252669, "ECCENTRICITY": 0.00011518, "INCLINATION": 43.0001, "RA_OF_ASC_NODE": 117.6864, "ARG_OF_PERICENTER": 273.9863, "MEAN_ANOMALY": 227.1137, "EPHEMERIS_TYPE": 0, "CLASSIFICATION_TYPE": "U", "NORAD_CAT_ID": 67056, "ELEMENT_SET_NO": 999, "REV_AT_EPOCH": 199, "BSTAR": -0.011897246, "MEAN_MOTION_DOT": -0.01919209, "MEAN_MOTION_DDOT": 0}, "tle": {"line1": "1 67056U 25294AC  25357.25001157 -.01919209  00000+0 -11897-1 0  9998", "line2": "2 67056  43.0001 117.6864 0001151 273.9863 227.1137 15.79252669  1997"}}, "geometry": {"type": "Point", "coordinates": [99.56669198602037, -13.406267981949034]}}, {"type": "Feature", "properties": {"norad_id": 67057, "name": "STARLINK-36141", "group": "last-30-days", "lat": -14.789829634714234, "lon": 97.93299123674834, "alt_km": 339.7771584098973, "timestamp": "2025-12-23T18:59:30.760513+00:00", "meta": {"OBJECT_NAME": "STARLINK-36141", "OBJECT_ID": "2025-294AD", "EPOCH": "2025-12-23T06:00:00.999648", "MEAN_MOTION": 15.79258322, "ECCENTRICITY": 0.00014529, "INCLINATION": 42.9998, "RA_OF_ASC_NODE": 117.6922, "ARG_OF_PERICENTER": 276.8407, "MEAN_ANOMALY": 222.1293, "EPHEMERIS_TYPE": 0, "CLASSIFICATION_TYPE": "U", "NORAD_CAT_ID": 67057, "ELEMENT_SET_NO": 999, "REV_AT_EPOCH": 191, "BSTAR": -0.011849272, "MEAN_MOTION_DOT": -0.01913222, "MEAN_MOTION_DDOT": 0}, "tle": {"line1": "1 67057U 25294AD  25357.25001157 -.01913222  00000+0 -11849-1 0  9995", "line2": "2 67057  42.9998 117.6922 0001452 276.8407 222.1293 15.79258322  1918"}}, "geometry": {"type": "Point", "coordinates": [97.93299123674834, -14.789829634714234]}}, {"type": "Feature", "properties": {"norad_id": 67058, "name": "STARLINK-35767", "group": "last-30-days", "lat": -16.073025702090646, "lon": 96.38624441843318, "alt_km": 340.01140893092906, "timestamp": "2025-12-23T18:59:30.760524+00:00", "meta": {"OBJECT_NAME": "STARLINK-35767", "OBJECT_ID": "2025-294AE", "EPOCH": "2025-12-23T06:00:00.999648", "MEAN_MOTION": 15.79200695, "ECCENTRICITY": 0.00010292, "INCLINATION": 43.0002, "RA_OF_ASC_NODE": 117.6969, "ARG_OF_PERICENTER": 276.7028, "MEAN_ANOMALY": 220.3376, "EPHEMERIS_TYPE": 0, "CLASSIFICATION_TYPE": "U", "NORAD_CAT_ID": 67058, "ELEMENT_SET_NO": 999, "REV_AT_EPOCH": 180, "BSTAR": -0.011467777, "MEAN_MOTION_DOT": -0.01854897, "MEAN_MOTION_DDOT": 0}, "tle": {"line1": "1 67058U 25294AE  25357.25001157 -.01854897  00000+0 -11468-1 0  9995", "line2": "2 67058  43.0002 117.6969 0001029 276.7028 220.3376 15.79200695  1806"}}, "geometry": {"type": "Point", "coordinates": [96.38624441843318, -16.073025702090646]}}, {"type": "Feature", "properties": {"norad_id": 67059, "name": "HULIANWANG DIGUI-119", "group": "last-30-days", "lat": 34.82234298636771, "lon": 1.3451857161565282, "alt_km": 810.5162140254333, "timestamp": "2025-12-23T18:59:30.760533+00:00", "meta": {"OBJECT_NAME": "HULIANWANG DIGUI-119", "OBJECT_ID": "2025-295A", "EPOCH": "2025-12-23T06:58:54.690528", "MEAN_MOTION": 14.24615747, "ECCENTRICITY": 0.0014023, "INCLINATION": 50.0051, "RA_OF_ASC_NODE": 327.7268, "ARG_OF_PERICENTER": 283.5891, "MEAN_ANOMALY": 76.3461, "EPHEMERIS_TYPE": 0, "CLASSIFICATION_TYPE": "U", "NORAD_CAT_ID": 67059, "ELEMENT_SET_NO": 999, "REV_AT_EPOCH": 162, "BSTAR": 8.0937568e-05, "MEAN_MOTION_DOT": 3e-07, "MEAN_MOTION_DDOT": 0}, "tle": {"line1": "1 67059U 25295A   25357.29091077  .00000030  00000+0  80938-4 0  9991", "line2": "2 67059  50.0051 327.7268 0014023 283.5891  76.3461 14.24615747  1628"}}, "geometry": {"type": "Point", "coordinates": [1.3451857161565282, 34.82234298636771]}}]}